ONEWEB-0685             
1 54679U 22166AP  24343.78369014  .00000016  00000+0  75345-5 0  9997
2 54679  87.9295 354.6356 0002008  86.2158 273.9206 13.21828718 98518
ONEWEB-0712             
1 54680U 22166AQ  24343.44624984 -.00000106  00000+0 -31079-3 0  9998
2 54680  87.9076 339.4886 0001882  68.1128 292.0203 13.16594244 98934
ONEWEB-0714             
1 54681U 22166AR  24343.56290504 -.00000007  00000+0 -47248-4 0  9995
2 54681  87.9296 354.6685 0001993  87.3835 272.7527 13.21823198 98131
ONEWEB-0532             
1 55140U 23004A   24343.40839198  .00000149  00000+0  35041-3 0  9991
2 55140  87.9091 116.5798 0001880 113.3697 246.7633 13.17650684 94392
ONEWEB-0533             
1 55141U 23004B   24343.76473330 -.00000020  00000+0 -89773-4 0  9995
2 55141  87.8884 101.2486 0001653  98.8797 261.2518 13.12443394 95201
ONEWEB-0541             
1 55142U 23004C   24343.43661967 -.00000340  00000+0 -99450-3 0  9992
2 55142  87.8891 131.7891 0001492  98.2574 261.8723 13.11415378 93107
ONEWEB-0543             
1 55143U 23004D   24343.52064726  .00000019  00000+0  16597-4 0  9996
2 55143  87.9108  86.1015 0001528  89.9272 270.2035 13.18685792 96461
ONEWEB-0544             
1 55144U 23004E   24343.59019950 -.00000008  00000+0 -54005-4 0  9999
2 55144  87.9107  86.0746 0001425 104.6522 255.4768 13.18688353 96475
